[{"OBJECT_NAME":"STARLINK-3057","OBJECT_ID":"2021-082K","EPOCH":"2026-03-09T21:07:46.077024","MEAN_MOTION":14.98332376,"ECCENTRICITY":0.00026723,"INCLINATION":69.9986,"RA_OF_ASC_NODE":253.9616,"ARG_OF_PERICENTER":269.0716,"MEAN_ANOMALY":91.0136,"EPHEMERIS_TYPE":0,"CLASSIFICATION_TYPE":"U","NORAD_CAT_ID":49139,"ELEMENT_SET_NO":999,"REV_AT_EPOCH":24699,"BSTAR":1.7534562e-5,"MEAN_MOTION_DOT":1.16e-6,"MEAN_MOTION_DDOT":0},{"OBJECT_NAME":"CZ-4C R\/B","OBJECT_ID":"2023-136B","EPOCH":"2026-03-09T22:23:17.511648","MEAN_MOTION":15.02951771,"ECCENTRICITY":0.01088591,"INCLINATION":98.3028,"RA_OF_ASC_NODE":56.8789,"ARG_OF_PERICENTER":268.7974,"MEAN_ANOMALY":90.0776,"EPHEMERIS_TYPE":0,"CLASSIFICATION_TYPE":"U","NORAD_CAT_ID":57798,"ELEMENT_SET_NO":999,"REV_AT_EPOCH":13700,"BSTAR":0.0002043348,"MEAN_MOTION_DOT":3.042e-5,"MEAN_MOTION_DDOT":0}]
